<?xml version="1.0" encoding="UTF-8"?>
<ndm xmlns:xsi="http://www.w3.org/2001/XMLSchema-instance" xsi:noNamespaceSchemaLocation="https://sanaregistry.org/r/ndmxml_unqualified/ndmxml-2.0.0-master-2.0.xsd">
<omm id="CCSDS_OMM_VERS" version="2.0">
<header><CREATION_DATE/><ORIGINATOR/></header><body><segment><metadata><OBJECT_NAME>IRIDIUM 171</OBJECT_NAME><OBJECT_ID>2019-002H</OBJECT_ID><CENTER_NAME>EARTH</CENTER_NAME><REF_FRAME>TEME</REF_FRAME><TIME_SYSTEM>UTC</TIME_SYSTEM><MEAN_ELEMENT_THEORY>SGP4</MEAN_ELEMENT_THEORY></metadata><data><meanElements><EPOCH>2024-01-09T01:18:35.045856</EPOCH><MEAN_MOTION>14.34220695</MEAN_MOTION><ECCENTRICITY>.0002095</ECCENTRICITY><INCLINATION>86.3980</INCLINATION><RA_OF_ASC_NODE>5.7850</RA_OF_ASC_NODE><ARG_OF_PERICENTER>90.3362</ARG_OF_PERICENTER><MEAN_ANOMALY>269.8074</MEAN_ANOMALY></meanElements><tleParameters><EPHEMERIS_TYPE>0</EPHEMERIS_TYPE><CLASSIFICATION_TYPE>U</CLASSIFICATION_TYPE><NORAD_CAT_ID>43929</NORAD_CAT_ID><ELEMENT_SET_NO>999</ELEMENT_SET_NO><REV_AT_EPOCH>26137</REV_AT_EPOCH><BSTAR>.12027E-3</BSTAR><MEAN_MOTION_DOT>.357E-5</MEAN_MOTION_DOT><MEAN_MOTION_DDOT>0</MEAN_MOTION_DDOT></tleParameters></data></segment></body></omm>
<omm id="CCSDS_OMM_VERS" version="2.0">
<header><CREATION_DATE/><ORIGINATOR/></header><body><segment><metadata><OBJECT_NAME>IRIDIUM 170</OBJECT_NAME><OBJECT_ID>2019-002J</OBJECT_ID><CENTER_NAME>EARTH</CENTER_NAME><REF_FRAME>TEME</REF_FRAME><TIME_SYSTEM>UTC</TIME_SYSTEM><MEAN_ELEMENT_THEORY>SGP4</MEAN_ELEMENT_THEORY></metadata><data><meanElements><EPOCH>2024-01-08T22:10:47.399808</EPOCH><MEAN_MOTION>14.72244397</MEAN_MOTION><ECCENTRICITY>.0002371</ECCENTRICITY><INCLINATION>86.6099</INCLINATION><RA_OF_ASC_NODE>5.6843</RA_OF_ASC_NODE><ARG_OF_PERICENTER>87.1282</ARG_OF_PERICENTER><MEAN_ANOMALY>273.0206</MEAN_ANOMALY></meanElements><tleParameters><EPHEMERIS_TYPE>0</EPHEMERIS_TYPE><CLASSIFICATION_TYPE>U</CLASSIFICATION_TYPE><NORAD_CAT_ID>43930</NORAD_CAT_ID><ELEMENT_SET_NO>999</ELEMENT_SET_NO><REV_AT_EPOCH>26827</REV_AT_EPOCH><BSTAR>.19471E-3</BSTAR><MEAN_MOTION_DOT>.1252E-4</MEAN_MOTION_DOT><MEAN_MOTION_DDOT>0</MEAN_MOTION_DDOT></tleParameters></data></segment></body></omm>
<omm id="CCSDS_OMM_VERS" version="2.0">
<header><CREATION_DATE/><ORIGINATOR/></header><body><segment><metadata><OBJECT_NAME>IRIDIUM 167</OBJECT_NAME><OBJECT_ID>2019-002K</OBJECT_ID><CENTER_NAME>EARTH</CENTER_NAME><REF_FRAME>TEME</REF_FRAME><TIME_SYSTEM>UTC</TIME_SYSTEM><MEAN_ELEMENT_THEORY>SGP4</MEAN_ELEMENT_THEORY></metadata><data><meanElements><EPOCH>2024-01-09T01:09:27.855648</EPOCH><MEAN_MOTION>14.34219501</MEAN_MOTION><ECCENTRICITY>.0002085</ECCENTRICITY><INCLINATION>86.3970</INCLINATION><RA_OF_ASC_NODE>5.5947</RA_OF_ASC_NODE><ARG_OF_PERICENTER>90.7961</ARG_OF_PERICENTER><MEAN_ANOMALY>269.3474</MEAN_ANOMALY></meanElements><tleParameters><EPHEMERIS_TYPE>0</EPHEMERIS_TYPE><CLASSIFICATION_TYPE>U</CLASSIFICATION_TYPE><NORAD_CAT_ID>43931</NORAD_CAT_ID><ELEMENT_SET_NO>999</ELEMENT_SET_NO><REV_AT_EPOCH>26137</REV_AT_EPOCH><BSTAR>.12406E-3</BSTAR><MEAN_MOTION_DOT>.367E-5</MEAN_MOTION_DOT><MEAN_MOTION_DDOT>0</MEAN_MOTION_DDOT></tleParameters></data></segment></body></omm>
<omm id="CCSDS_OMM_VERS" version="2.0">
<header><CREATION_DATE/><ORIGINATOR/></header><body><segment><metadata><OBJECT_NAME>IRIDIUM 181</OBJECT_NAME><OBJECT_ID>2023-068S</OBJECT_ID><CENTER_NAME>EARTH</CENTER_NAME><REF_FRAME>TEME</REF_FRAME><TIME_SYSTEM>UTC</TIME_SYSTEM><MEAN_ELEMENT_THEORY>SGP4</MEAN_ELEMENT_THEORY></metadata><data><meanElements><EPOCH>2024-01-08T15:20:31.964640</EPOCH><MEAN_MOTION>14.43575187</MEAN_MOTION><ECCENTRICITY>.0001583</ECCENTRICITY><INCLINATION>86.8611</INCLINATION><RA_OF_ASC_NODE>51.7001</RA_OF_ASC_NODE><ARG_OF_PERICENTER>83.6297</ARG_OF_PERICENTER><MEAN_ANOMALY>276.5085</MEAN_ANOMALY></meanElements><tleParameters><EPHEMERIS_TYPE>0</EPHEMERIS_TYPE><CLASSIFICATION_TYPE>U</CLASSIFICATION_TYPE><NORAD_CAT_ID>56726</NORAD_CAT_ID><ELEMENT_SET_NO>999</ELEMENT_SET_NO><REV_AT_EPOCH>3397</REV_AT_EPOCH><BSTAR>.11591E-3</BSTAR><MEAN_MOTION_DOT>.412E-5</MEAN_MOTION_DOT><MEAN_MOTION_DDOT>0</MEAN_MOTION_DDOT></tleParameters></data></segment></body></omm>
<omm id="CCSDS_OMM_VERS" version="2.0">
<header><CREATION_DATE/><ORIGINATOR/></header><body><segment><metadata><OBJECT_NAME>IRIDIUM 177</OBJECT_NAME><OBJECT_ID>2023-068T</OBJECT_ID><CENTER_NAME>EARTH</CENTER_NAME><REF_FRAME>TEME</REF_FRAME><TIME_SYSTEM>UTC</TIME_SYSTEM><MEAN_ELEMENT_THEORY>SGP4</MEAN_ELEMENT_THEORY></metadata><data><meanElements><EPOCH>2024-01-09T11:34:58.628064</EPOCH><MEAN_MOTION>14.80223717</MEAN_MOTION><ECCENTRICITY>.00023</ECCENTRICITY><INCLINATION>86.1963</INCLINATION><RA_OF_ASC_NODE>31.1700</RA_OF_ASC_NODE><ARG_OF_PERICENTER>95.8552</ARG_OF_PERICENTER><MEAN_ANOMALY>264.2931</MEAN_ANOMALY></meanElements><tleParameters><EPHEMERIS_TYPE>0</EPHEMERIS_TYPE><CLASSIFICATION_TYPE>U</CLASSIFICATION_TYPE><NORAD_CAT_ID>56727</NORAD_CAT_ID><ELEMENT_SET_NO>999</ELEMENT_SET_NO><REV_AT_EPOCH>3475</REV_AT_EPOCH><BSTAR>.21338E-3</BSTAR><MEAN_MOTION_DOT>.1648E-4</MEAN_MOTION_DOT><MEAN_MOTION_DDOT>0</MEAN_MOTION_DDOT></tleParameters></data></segment></body></omm>
<omm id="CCSDS_OMM_VERS" version="2.0">
<header><CREATION_DATE/><ORIGINATOR/></header><body><segment><metadata><OBJECT_NAME>IRIDIUM 174</OBJECT_NAME><OBJECT_ID>2023-068U</OBJECT_ID><CENTER_NAME>EARTH</CENTER_NAME><REF_FRAME>TEME</REF_FRAME><TIME_SYSTEM>UTC</TIME_SYSTEM><MEAN_ELEMENT_THEORY>SGP4</MEAN_ELEMENT_THEORY></metadata><data><meanElements><EPOCH>2024-01-09T03:20:23.005824</EPOCH><MEAN_MOTION>14.80229310</MEAN_MOTION><ECCENTRICITY>.0002507</ECCENTRICITY><INCLINATION>86.1969</INCLINATION><RA_OF_ASC_NODE>31.4239</RA_OF_ASC_NODE><ARG_OF_PERICENTER>96.1083</ARG_OF_PERICENTER><MEAN_ANOMALY>264.0424</MEAN_ANOMALY></meanElements><tleParameters><EPHEMERIS_TYPE>0</EPHEMERIS_TYPE><CLASSIFICATION_TYPE>U</CLASSIFICATION_TYPE><NORAD_CAT_ID>56728</NORAD_CAT_ID><ELEMENT_SET_NO>999</ELEMENT_SET_NO><REV_AT_EPOCH>3470</REV_AT_EPOCH><BSTAR>.20933E-3</BSTAR><MEAN_MOTION_DOT>.1617E-4</MEAN_MOTION_DOT><MEAN_MOTION_DDOT>0</MEAN_MOTION_DDOT></tleParameters></data></segment></body></omm>
<omm id="CCSDS_OMM_VERS" version="2.0">
<header><CREATION_DATE/><ORIGINATOR/></header><body><segment><metadata><OBJECT_NAME>IRIDIUM 178</OBJECT_NAME><OBJECT_ID>2023-068V</OBJECT_ID><CENTER_NAME>EARTH</CENTER_NAME><REF_FRAME>TEME</REF_FRAME><TIME_SYSTEM>UTC</TIME_SYSTEM><MEAN_ELEMENT_THEORY>SGP4</MEAN_ELEMENT_THEORY></metadata><data><meanElements><EPOCH>2024-01-08T14:13:51.055392</EPOCH><MEAN_MOTION>14.80223100</MEAN_MOTION><ECCENTRICITY>.0002245</ECCENTRICITY><INCLINATION>86.5765</INCLINATION><RA_OF_ASC_NODE>41.5334</RA_OF_ASC_NODE><ARG_OF_PERICENTER>94.6495</ARG_OF_PERICENTER><MEAN_ANOMALY>265.4983</MEAN_ANOMALY></meanElements><tleParameters><EPHEMERIS_TYPE>0</EPHEMERIS_TYPE><CLASSIFICATION_TYPE>U</CLASSIFICATION_TYPE><NORAD_CAT_ID>56729</NORAD_CAT_ID><ELEMENT_SET_NO>999</ELEMENT_SET_NO><REV_AT_EPOCH>3462</REV_AT_EPOCH><BSTAR>.18839E-3</BSTAR><MEAN_MOTION_DOT>.1457E-4</MEAN_MOTION_DOT><MEAN_MOTION_DDOT>0</MEAN_MOTION_DDOT></tleParameters></data></segment></body></omm>
<omm id="CCSDS_OMM_VERS" version="2.0">
<header><CREATION_DATE/><ORIGINATOR/></header><body><segment><metadata><OBJECT_NAME>IRIDIUM 179</OBJECT_NAME><OBJECT_ID>2023-068W</OBJECT_ID><CENTER_NAME>EARTH</CENTER_NAME><REF_FRAME>TEME</REF_FRAME><TIME_SYSTEM>UTC</TIME_SYSTEM><MEAN_ELEMENT_THEORY>SGP4</MEAN_ELEMENT_THEORY></metadata><data><meanElements><EPOCH>2024-01-09T03:04:51.714048</EPOCH><MEAN_MOTION>14.80225212</MEAN_MOTION><ECCENTRICITY>.0002322</ECCENTRICITY><INCLINATION>86.6773</INCLINATION><RA_OF_ASC_NODE>43.4223</RA_OF_ASC_NODE><ARG_OF_PERICENTER>95.9658</ARG_OF_PERICENTER><MEAN_ANOMALY>264.1829</MEAN_ANOMALY></meanElements><tleParameters><EPHEMERIS_TYPE>0</EPHEMERIS_TYPE><CLASSIFICATION_TYPE>U</CLASSIFICATION_TYPE><NORAD_CAT_ID>56730</NORAD_CAT_ID><ELEMENT_SET_NO>999</ELEMENT_SET_NO><REV_AT_EPOCH>3470</REV_AT_EPOCH><BSTAR>.19076E-3</BSTAR><MEAN_MOTION_DOT>.1475E-4</MEAN_MOTION_DOT><MEAN_MOTION_DDOT>0</MEAN_MOTION_DDOT></tleParameters></data></segment></body></omm>
</ndm>
