IRIDIUM 171             
1 43929U 19002H   24009.05457229  .00000357  00000+0  12027-3 0  9997
2 43929  86.3980   5.7850 0002095  90.3362 269.8074 14.34220695261378
IRIDIUM 170             
1 43930U 19002J   24008.92415972  .00001252  00000+0  19471-3 0  9998
2 43930  86.6099   5.6843 0002371  87.1282 273.0206 14.72244397268274
IRIDIUM 167             
1 43931U 19002K   24009.04823907  .00000367  00000+0  12406-3 0  9991
2 43931  86.3970   5.5947 0002085  90.7961 269.3474 14.34219501261376
IRIDIUM 181             
1 56726U 23068S   24008.63925885  .00000412  00000+0  11591-3 0  9991
2 56726  86.8611  51.7001 0001583  83.6297 276.5085 14.43575187 33974
IRIDIUM 177             
1 56727U 23068T   24009.48262301  .00001648  00000+0  21338-3 0  9995
2 56727  86.1963  31.1700 0002300  95.8552 264.2931 14.80223717 34754
IRIDIUM 174             
1 56728U 23068U   24009.13915516  .00001617  00000+0  20933-3 0  9997
2 56728  86.1969  31.4239 0002507  96.1083 264.0424 14.80229310 34708
IRIDIUM 178             
1 56729U 23068V   24008.59295203  .00001457  00000+0  18839-3 0  9995
2 56729  86.5765  41.5334 0002245  94.6495 265.4983 14.80223100 34621
IRIDIUM 179             
1 56730U 23068W   24009.12837632  .00001475  00000+0  19076-3 0  9999
2 56730  86.6773  43.4223 0002322  95.9658 264.1829 14.80225212 34702
